[
	{
		"_id":"1",
		"title":"Название1",
		"start":"",
		"end":"",
		"postalCode":"308031",
		"description":"описание для Название1",
		"executor":"noname"

	},
	{
		"_id":"2",
		"title":"Название2",
		"start":"",
		"end":"",
		"postalCode":"308031",
		"description":"описание для Название2",
		"executor":"noname"

	},
	{
		"_id":"3",
		"title":"Название3",
		"start":"",
		"end":"",
		"postalCode":"308031",
		"description":"описание для Название3",
		"executor":"noname"

	},
	{
		"_id":"4",
		"title":"Название4",
		"start":"",
		"end":"",
		"postalCode":"308031",
		"description":"описание для Название4",
		"executor":"noname"

	},
	{
		"_id":"5",
		"title":"Название5",
		"start":"",
		"end":"",
		"postalCode":"308036",
		"description":"описание для Название6",
		"executor":"noname"

	},
	{
		"_id":"7",
		"title":"Название1",
		"start":"",
		"end":"",
		"postalCode":"308036",
		"description":"описание для Название1",
		"executor":"noname"

	},
	{
		"_id":"8",
		"title":"Название8",
		"start":"",
		"end":"",
		"postalCode":"308036",
		"description":"описание для Название8",
		"executor":"noname"

	},
	{
		"_id":"9",
		"title":"Название9",
		"start":"",
		"end":"",
		"postalCode":"308036",
		"description":"описание для Название9",
		"executor":"noname"

	},
	{
		"_id":"10",
		"title":"Название10",
		"start":"",
		"end":"",
		"postalCode":"308036",
		"description":"описание для Название10",
		"executor":"noname"

	},
	{
		"_id":"11",
		"title":"Название11",
		"start":"",
		"end":"",
		"postalCode":"308036",
		"description":"описание для Название11",
		"executor":"noname"

	},
	{
		"_id":"12",
		"title":"Название12",
		"start":"",
		"end":"",
		"postalCode":"308036",
		"description":"описание для Название12",
		"executor":"noname"

	}
]